{"type": "FeatureCollection", "features": [ {"type": "Feature", "properties": {"norad_id": 65304, "name": "DRAGON CRS-33", "group": "stations", "lat": -50.22164515630448, "lon": -7.139612050542308, "alt_km": 420.1708448644631, "timestamp": "2025-12-21T03:56:49.648377+00:00", "meta": {"OBJECT_NAME": "DRAGON CRS-33", "OBJECT_ID": "2025-186A", "EPOCH": "2025-12-20T14:27:14.498496", "MEAN_MOTION": 15.49685042, "ECCENTRICITY": 0.00031934, "INCLINATION": 51.6321, "RA_OF_ASC_NODE": 103.5427, "ARG_OF_PERICENTER": 277.2005, "MEAN_ANOMALY": 82.862, "EPHEMERIS_TYPE": 0, "CLASSIFICATION_TYPE": "U", "NORAD_CAT_ID": 65304, "ELEMENT_SET_NO": 999, "REV_AT_EPOCH": 11, "BSTAR": 0.00012983891, "MEAN_MOTION_DOT": 6.881e-05, "MEAN_MOTION_DDOT": 0}, "tle": {"line1": "1 65304U 25186A   25354.60225114  .00006881  00000+0  12984-3 0  9999", "line2": "2 65304  51.6321 103.5427 0003193 277.2005  82.8620 15.49685042   111"}}, "geometry": {"type": "Point", "coordinates": [-7.139612050542308, -50.22164515630448]}}, {"type": "Feature", "properties": {"norad_id": 65586, "name": "PROGRESS-MS 32", "group": "stations", "lat": -50.221645327291505, "lon": -7.13961097435058, "alt_km": 420.1708448597774, "timestamp": "2025-12-21T03:56:49.648388+00:00", "meta": {"OBJECT_NAME": "PROGRESS-MS 32", "OBJECT_ID": "2025-204A", "EPOCH": "2025-12-20T14:27:14.498496", "MEAN_MOTION": 15.49685042, "ECCENTRICITY": 0.00031934, "INCLINATION": 51.6321, "RA_OF_ASC_NODE": 103.5427, "ARG_OF_PERICENTER": 277.2005, "MEAN_ANOMALY": 82.862, "EPHEMERIS_TYPE": 0, "CLASSIFICATION_TYPE": "U", "NORAD_CAT_ID": 65586, "ELEMENT_SET_NO": 999, "REV_AT_EPOCH": 27, "BSTAR": 0.00012983891, "MEAN_MOTION_DOT": 6.881e-05, "MEAN_MOTION_DDOT": 0}, "tle": {"line1": "1 65586U 25204A   25354.60225114  .00006881  00000+0  12984-3 0  9992", "line2": "2 65586  51.6321 103.5427 0003193 277.2005  82.8620 15.49685042   270"}}, "geometry": {"type": "Point", "coordinates": [-7.13961097435058, -50.221645327291505]}}, {"type": "Feature", "properties": {"norad_id": 65616, "name": "CYGNUS NG-23", "group": "stations", "lat": -50.221645467189916, "lon": -7.139610093830408, "alt_km": 420.17084485594114, "timestamp": "2025-12-21T03:56:49.648397+00:00", "meta": {"OBJECT_NAME": "CYGNUS NG-23", "OBJECT_ID": "2025-208A", "EPOCH": "2025-12-20T14:27:14.498496", "MEAN_MOTION": 15.49685042, "ECCENTRICITY": 0.00031934, "INCLINATION": 51.6321, "RA_OF_ASC_NODE": 103.5427, "ARG_OF_PERICENTER": 277.2005, "MEAN_ANOMALY": 82.862, "EPHEMERIS_TYPE": 0, "CLASSIFICATION_TYPE": "U", "NORAD_CAT_ID": 65616, "ELEMENT_SET_NO": 999, "REV_AT_EPOCH": 22, "BSTAR": 0.00012983891, "MEAN_MOTION_DOT": 6.881e-05, "MEAN_MOTION_DDOT": 0}, "tle": {"line1": "1 65616U 25208A   25354.60225114  .00006881  00000+0  12984-3 0  9990", "line2": "2 65616  51.6321 103.5427 0003193 277.2005  82.8620 15.49685042   229"}}, "geometry": {"type": "Point", "coordinates": [-7.139610093830408, -50.221645467189916]}}, {"type": "Feature", "properties": {"norad_id": 65729, "name": "DRAGONFLY", "group": "stations", "lat": -41.047566785604985, "lon": -43.83589979329139, "alt_km": 350.00587419831663, "timestamp": "2025-12-21T03:56:49.648407+00:00", "meta": {"OBJECT_NAME": "DRAGONFLY", "OBJECT_ID": "1998-067XH", "EPOCH": "2025-12-20T11:42:45.439488", "MEAN_MOTION": 15.74448787, "ECCENTRICITY": 0.00074375, "INCLINATION": 51.6254, "RA_OF_ASC_NODE": 96.0114, "ARG_OF_PERICENTER": 325.9909, "MEAN_ANOMALY": 34.0612, "EPHEMERIS_TYPE": 0, "CLASSIFICATION_TYPE": "U", "NORAD_CAT_ID": 65729, "ELEMENT_SET_NO": 999, "REV_AT_EPOCH": 1438, "BSTAR": 0.00098005582, "MEAN_MOTION_DOT": 0.00147536, "MEAN_MOTION_DDOT": 0}, "tle": {"line1": "1 65729U 98067XH  25354.48802592  .00147536  00000+0  98006-3 0  9997", "line2": "2 65729  51.6254  96.0114 0007437 325.9909  34.0612 15.74448787 14380"}}, "geometry": {"type": "Point", "coordinates": [-43.83589979329139, -41.047566785604985]}}, {"type": "Feature", "properties": {"norad_id": 65731, "name": "1998-067XK", "group": "stations", "lat": 39.82163909302279, "lon": 135.78632873288592, "alt_km": 362.8686691405537, "timestamp": "2025-12-21T03:56:49.648417+00:00", "meta": {"OBJECT_NAME": "1998-067XK", "OBJECT_ID": "1998-067XK", "EPOCH": "2025-12-20T00:10:02.026560", "MEAN_MOTION": 15.67078773, "ECCENTRICITY": 0.00047639, "INCLINATION": 51.6294, "RA_OF_ASC_NODE": 100.3244, "ARG_OF_PERICENTER": 292.7833, "MEAN_ANOMALY": 67.2659, "EPHEMERIS_TYPE": 0, "CLASSIFICATION_TYPE": "U", "NORAD_CAT_ID": 65731, "ELEMENT_SET_NO": 999, "REV_AT_EPOCH": 1428, "BSTAR": 0.00070175188, "MEAN_MOTION_DOT": 0.00076617, "MEAN_MOTION_DDOT": 0}, "tle": {"line1": "1 65731U 98067XK  25354.00696790  .00076617  00000+0  70175-3 0  9997", "line2": "2 65731  51.6294 100.3244 0004763 292.7833  67.2659 15.67078773 14280"}}, "geometry": {"type": "Point", "coordinates": [135.78632873288592, 39.82163909302279]}}, {"type": "Feature", "properties": {"norad_id": 65732, "name": "RSP-03", "group": "stations", "lat": 41.215664923959345, "lon": -130.42606229764633, "alt_km": 355.20464392404483, "timestamp": "2025-12-21T03:56:49.648427+00:00", "meta": {"OBJECT_NAME": "RSP-03", "OBJECT_ID": "1998-067XL", "EPOCH": "2025-12-19T10:11:34.022112", "MEAN_MOTION": 15.70283101, "ECCENTRICITY": 0.0005658, "INCLINATION": 51.6265, "RA_OF_ASC_NODE": 102.4221, "ARG_OF_PERICENTER": 294.5755, "MEAN_ANOMALY": 65.4652, "EPHEMERIS_TYPE": 0, "CLASSIFICATION_TYPE": "U", "NORAD_CAT_ID": 65732, "ELEMENT_SET_NO": 999, "REV_AT_EPOCH": 1421, "BSTAR": 0.00084699, "MEAN_MOTION_DOT": 0.00106087, "MEAN_MOTION_DDOT": 0}, "tle": {"line1": "1 65732U 98067XL  25353.42469933  .00106087  00000+0  84699-3 0  9991", "line2": "2 65732  51.6265 102.4221 0005658 294.5755  65.4652 15.70283101 14217"}}, "geometry": {"type": "Point", "coordinates": [-130.42606229764633, 41.215664923959345]}}, {"type": "Feature", "properties": {"norad_id": 65733, "name": "GHS-01", "group": "stations", "lat": -48.23649052397899, "lon": -25.698790390817194, "alt_km": 338.4905471816455, "timestamp": "2025-12-21T03:56:49.648437+00:00", "meta": {"OBJECT_NAME": "GHS-01", "OBJECT_ID": "1998-067XM", "EPOCH": "2025-12-20T11:41:11.076000", "MEAN_MOTION": 15.78117355, "ECCENTRICITY": 0.00085452, "INCLINATION": 51.6277, "RA_OF_ASC_NODE": 95.2602, "ARG_OF_PERICENTER": 329.3713, "MEAN_ANOMALY": 30.6788, "EPHEMERIS_TYPE": 0, "CLASSIFICATION_TYPE": "U", "NORAD_CAT_ID": 65733, "ELEMENT_SET_NO": 999, "REV_AT_EPOCH": 1440, "BSTAR": 0.0011084718, "MEAN_MOTION_DOT": 0.00197582, "MEAN_MOTION_DDOT": 0}, "tle": {"line1": "1 65733U 98067XM  25354.48693375  .00197582  00000+0  11085-2 0  9996", "line2": "2 65733  51.6277  95.2602 0008545 329.3713  30.6788 15.78117355 14402"}}, "geometry": {"type": "Point", "coordinates": [-25.698790390817194, -48.23649052397899]}}, {"type": "Feature", "properties": {"norad_id": 65941, "name": "YOTSUBA-KULOVER", "group": "stations", "lat": -17.38655636457688, "lon": 83.23213152871826, "alt_km": 387.6142942925662, "timestamp": "2025-12-21T03:56:49.648446+00:00", "meta": {"OBJECT_NAME": "YOTSUBA-KULOVER", "OBJECT_ID": "1998-067XN", "EPOCH": "2025-12-20T11:08:10.276512", "MEAN_MOTION": 15.60441767, "ECCENTRICITY": 0.00018566, "INCLINATION": 51.6291, "RA_OF_ASC_NODE": 101.1247, "ARG_OF_PERICENTER": 327.316, "MEAN_ANOMALY": 32.7719, "EPHEMERIS_TYPE": 0, "CLASSIFICATION_TYPE": "U", "NORAD_CAT_ID": 65941, "ELEMENT_SET_NO": 999, "REV_AT_EPOCH": 1106, "BSTAR": 0.00062678639, "MEAN_MOTION_DOT": 0.0005237, "MEAN_MOTION_DDOT": 0}, "tle": {"line1": "1 65941U 98067XN  25354.46400783  .00052370  00000+0  62679-3 0  9995", "line2": "2 65941  51.6291 101.1247 0001856 327.3160  32.7719 15.60441767 11067"}}, "geometry": {"type": "Point", "coordinates": [83.23213152871826, -17.38655636457688]}}, {"type": "Feature", "properties": {"norad_id": 65942, "name": "BOTAN", "group": "stations", "lat": 42.63035859571074, "lon": 143.51029374629147, "alt_km": 369.5501095081818, "timestamp": "2025-12-21T03:56:49.648456+00:00", "meta": {"OBJECT_NAME": "BOTAN", "OBJECT_ID": "1998-067XP", "EPOCH": "2025-12-20T13:53:44.237472", "MEAN_MOTION": 15.64441775, "ECCENTRICITY": 0.00029505, "INCLINATION": 51.6283, "RA_OF_ASC_NODE": 99.6415, "ARG_OF_PERICENTER": 304.2475, "MEAN_ANOMALY": 55.824, "EPHEMERIS_TYPE": 0, "CLASSIFICATION_TYPE": "U", "NORAD_CAT_ID": 65942, "ELEMENT_SET_NO": 999, "REV_AT_EPOCH": 1109, "BSTAR": 0.00083574073, "MEAN_MOTION_DOT": 0.00082185, "MEAN_MOTION_DDOT": 0}, "tle": {"line1": "1 65942U 98067XP  25354.57898423  .00082185  00000+0  83574-3 0  9994", "line2": "2 65942  51.6283  99.6415 0002950 304.2475  55.8240 15.64441775 11097"}}, "geometry": {"type": "Point", "coordinates": [143.51029374629147, 42.63035859571074]}}, {"type": "Feature", "properties": {"norad_id": 65943, "name": "E-KAGAKU-1", "group": "stations", "lat": -17.58210366764977, "lon": 83.05754752440505, "alt_km": 388.4335661525156, "timestamp": "2025-12-21T03:56:49.648467+00:00", "meta": {"OBJECT_NAME": "E-KAGAKU-1", "OBJECT_ID": "1998-067XQ", "EPOCH": "2025-12-18T08:24:49.666176", "MEAN_MOTION": 15.60193795, "ECCENTRICITY": 0.00013451, "INCLINATION": 51.6302, "RA_OF_ASC_NODE": 111.7666, "ARG_OF_PERICENTER": 249.8249, "MEAN_ANOMALY": 110.26, "EPHEMERIS_TYPE": 0, "CLASSIFICATION_TYPE": "U", "NORAD_CAT_ID": 65943, "ELEMENT_SET_NO": 999, "REV_AT_EPOCH": 1073, "BSTAR": 0.00084619625, "MEAN_MOTION_DOT": 0.00070368, "MEAN_MOTION_DDOT": 0}, "tle": {"line1": "1 65943U 98067XQ  25352.35057484  .00070368  00000+0  84620-3 0  9996", "line2": "2 65943  51.6302 111.7666 0001345 249.8249 110.2600 15.60193795 10732"}}, "geometry": {"type": "Point", "coordinates": [83.05754752440505, -17.58210366764977]}}]}